[{"OBJECT_NAME":"SL-8 R/B","OBJECT_ID":"1991-006B","EPOCH":"2026-04-19T03:43:50.397888","MEAN_MOTION":13.77502417,"ECCENTRICITY":0.00209399,"INCLINATION":82.941,"RA_OF_ASC_NODE":139.9545,"ARG_OF_PERICENTER":282.5927,"MEAN_ANOMALY":138.4229,"EPHEMERIS_TYPE":0,"CLASSIFICATION_TYPE":"U","NORAD_CAT_ID":21088,"ELEMENT_SET_NO":999,"REV_AT_EPOCH":76964,"BSTAR":0.00014307906,"MEAN_MOTION_DOT":1.58e-6,"MEAN_MOTION_DDOT":0},{"OBJECT_NAME":"OKEAN-3","OBJECT_ID":"1991-039A","EPOCH":"2026-04-19T04:07:03.345600","MEAN_MOTION":15.05024627,"ECCENTRICITY":0.00140491,"INCLINATION":82.5132,"RA_OF_ASC_NODE":297.6073,"ARG_OF_PERICENTER":186.0641,"MEAN_ANOMALY":174.0418,"EPHEMERIS_TYPE":0,"CLASSIFICATION_TYPE":"U","NORAD_CAT_ID":21397,"ELEMENT_SET_NO":999,"REV_AT_EPOCH":87112,"BSTAR":0.00011017203,"MEAN_MOTION_DOT":1.595e-5,"MEAN_MOTION_DDOT":0},{"OBJECT_NAME":"COSMOS 2151","OBJECT_ID":"1991-042A","EPOCH":"2026-04-19T05:40:56.669664","MEAN_MOTION":15.00275397,"ECCENTRICITY":0.00106577,"INCLINATION":82.4981,"RA_OF_ASC_NODE":44.5561,"ARG_OF_PERICENTER":285.4634,"MEAN_ANOMALY":74.5412,"EPHEMERIS_TYPE":0,"CLASSIFICATION_TYPE":"U","NORAD_CAT_ID":21422,"ELEMENT_SET_NO":999,"REV_AT_EPOCH":86927,"BSTAR":0.00011086296,"MEAN_MOTION_DOT":1.416e-5,"MEAN_MOTION_DDOT":0},{"OBJECT_NAME":"SL-14 R/B","OBJECT_ID":"1991-042B","EPOCH":"2026-04-19T04:55:26.268960","MEAN_MOTION":14.81866711,"ECCENTRICITY":0.00185426,"INCLINATION":82.4955,"RA_OF_ASC_NODE":182.2027,"ARG_OF_PERICENTER":106.9087,"MEAN_ANOMALY":253.4162,"EPHEMERIS_TYPE":0,"CLASSIFICATION_TYPE":"U","NORAD_CAT_ID":21423,"ELEMENT_SET_NO":999,"REV_AT_EPOCH":85907,"BSTAR":2.9465995e-5,"MEAN_MOTION_DOT":2.57e-6,"MEAN_MOTION_DDOT":0},{"OBJECT_NAME":"ERS-1","OBJECT_ID":"1991-050A","EPOCH":"2026-04-19T06:59:27.555360","MEAN_MOTION":14.39479335,"ECCENTRICITY":0.00331104,"INCLINATION":98.7844,"RA_OF_ASC_NODE":128.5412,"ARG_OF_PERICENTER":82.3595,"MEAN_ANOMALY":278.1351,"EPHEMERIS_TYPE":0,"CLASSIFICATION_TYPE":"U","NORAD_CAT_ID":21574,"ELEMENT_SET_NO":999,"REV_AT_EPOCH":82157,"BSTAR":7.8814166e-5,"MEAN_MOTION_DOT":2.01e-6,"MEAN_MOTION_DDOT":0},{"OBJECT_NAME":"ARIANE 40 R/B","OBJECT_ID":"1991-050F","EPOCH":"2026-04-19T04:13:57.864288","MEAN_MOTION":14.4292159,"ECCENTRICITY":0.0002148,"INCLINATION":98.1934,"RA_OF_ASC_NODE":159.8768,"ARG_OF_PERICENTER":332.8147,"MEAN_ANOMALY":27.2931,"EPHEMERIS_TYPE":0,"CLASSIFICATION_TYPE":"U","NORAD_CAT_ID":21610,"ELEMENT_SET_NO":999,"REV_AT_EPOCH":82483,"BSTAR":6.2004634e-5,"MEAN_MOTION_DOT":1.66e-6,"MEAN_MOTION_DDOT":0},{"OBJECT_NAME":"INTERCOSMOS 25","OBJECT_ID":"1991-086A","EPOCH":"2026-04-19T04:26:37.154400","MEAN_MOTION":12.12120845,"ECCENTRICITY":0.14858292,"INCLINATION":82.5991,"RA_OF_ASC_NODE":285.517,"ARG_OF_PERICENTER":29.6641,"MEAN_ANOMALY":338.0903,"EPHEMERIS_TYPE":0,"CLASSIFICATION_TYPE":"U","NORAD_CAT_ID":21819,"ELEMENT_SET_NO":999,"REV_AT_EPOCH":50159,"BSTAR":0.00017227558,"MEAN_MOTION_DOT":9.01e-6,"MEAN_MOTION_DDOT":0},{"OBJECT_NAME":"SL-8 R/B","OBJECT_ID":"1992-008B","EPOCH":"2026-04-19T06:57:52.777152","MEAN_MOTION":13.75970053,"ECCENTRICITY":0.00350177,"INCLINATION":82.9266,"RA_OF_ASC_NODE":237.5735,"ARG_OF_PERICENTER":23.4161,"MEAN_ANOMALY":359.5456,"EPHEMERIS_TYPE":0,"CLASSIFICATION_TYPE":"U","NORAD_CAT_ID":21876,"ELEMENT_SET_NO":999,"REV_AT_EPOCH":71500,"BSTAR":-1.0374213e-5,"MEAN_MOTION_DOT":5.0e-8,"MEAN_MOTION_DDOT":0},{"OBJECT_NAME":"SL-8 R/B","OBJECT_ID":"1992-020B","EPOCH":"2026-04-19T06:29:39.134976","MEAN_MOTION":13.75549093,"ECCENTRICITY":0.00289635,"INCLINATION":82.9271,"RA_OF_ASC_NODE":123.6231,"ARG_OF_PERICENTER":181.6918,"MEAN_ANOMALY":189.4454,"EPHEMERIS_TYPE":0,"CLASSIFICATION_TYPE":"U","NORAD_CAT_ID":21938,"ELEMENT_SET_NO":999,"REV_AT_EPOCH":70671,"BSTAR":-7.5299973e-5,"MEAN_MOTION_DOT":-5.7e-7,"MEAN_MOTION_DDOT":0},{"OBJECT_NAME":"USA 81","OBJECT_ID":"1992-023A","EPOCH":"2026-04-19T05:54:10.148256","MEAN_MOTION":14.32380707,"ECCENTRICITY":0.00012152,"INCLINATION":85.0036,"RA_OF_ASC_NODE":108.0294,"ARG_OF_PERICENTER":91.8396,"MEAN_ANOMALY":268.2936,"EPHEMERIS_TYPE":0,"CLASSIFICATION_TYPE":"U","NORAD_CAT_ID":21949,"ELEMENT_SET_NO":999,"REV_AT_EPOCH":10059,"BSTAR":3.6861376e-5,"MEAN_MOTION_DOT":1.2e-6,"MEAN_MOTION_DDOT":0},{"OBJECT_NAME":"COSMOS 2219","OBJECT_ID":"1992-076A","EPOCH":"2026-04-19T06:23:16.238688","MEAN_MOTION":14.14090896,"ECCENTRICITY":0.00171735,"INCLINATION":71.0585,"RA_OF_ASC_NODE":293.2456,"ARG_OF_PERICENTER":143.2618,"MEAN_ANOMALY":216.9686,"EPHEMERIS_TYPE":0,"CLASSIFICATION_TYPE":"U","NORAD_CAT_ID":22219,"ELEMENT_SET_NO":999,"REV_AT_EPOCH":72411,"BSTAR":0.00015418621,"MEAN_MOTION_DOT":2.47e-6,"MEAN_MOTION_DDOT":0},{"OBJECT_NAME":"SL-16 R/B","OBJECT_ID":"1992-076B","EPOCH":"2026-04-19T06:45:20.918304","MEAN_MOTION":14.16867004,"ECCENTRICITY":0.00117217,"INCLINATION":70.9982,"RA_OF_ASC_NODE":102.8681,"ARG_OF_PERICENTER":23.286,"MEAN_ANOMALY":347.7202,"EPHEMERIS_TYPE":0,"CLASSIFICATION_TYPE":"U","NORAD_CAT_ID":22220,"ELEMENT_SET_NO":999,"REV_AT_EPOCH":72758,"BSTAR":-2.2636749e-5,"MEAN_MOTION_DOT":-9.3e-7,"MEAN_MOTION_DDOT":0},{"OBJECT_NAME":"COSMOS 2221","OBJECT_ID":"1992-080A","EPOCH":"2026-04-19T07:07:09.967296","MEAN_MOTION":14.96369455,"ECCENTRICITY":0.00153896,"INCLINATION":82.5034,"RA_OF_ASC_NODE":240.1732,"ARG_OF_PERICENTER":59.8276,"MEAN_ANOMALY":300.4468,"EPHEMERIS_TYPE":0,"CLASSIFICATION_TYPE":"U","NORAD_CAT_ID":22236,"ELEMENT_SET_NO":999,"REV_AT_EPOCH":78686,"BSTAR":0.00011655702,"MEAN_MOTION_DOT":1.348e-5,"MEAN_MOTION_DDOT":0},{"OBJECT_NAME":"SL-16 R/B","OBJECT_ID":"1992-093B","EPOCH":"2026-04-19T03:54:17.845056","MEAN_MOTION":14.15453806,"ECCENTRICITY":0.0006291,"INCLINATION":71.0199,"RA_OF_ASC_NODE":279.3007,"ARG_OF_PERICENTER":252.4971,"MEAN_ANOMALY":107.5465,"EPHEMERIS_TYPE":0,"CLASSIFICATION_TYPE":"U","NORAD_CAT_ID":22285,"ELEMENT_SET_NO":999,"REV_AT_EPOCH":71888,"BSTAR":6.9926598e-5,"MEAN_MOTION_DOT":8.9e-7,"MEAN_MOTION_DDOT":0},{"OBJECT_NAME":"COSMOS 2228","OBJECT_ID":"1992-094A","EPOCH":"2026-04-19T05:15:09.417600","MEAN_MOTION":14.9738977,"ECCENTRICITY":0.0018527,"INCLINATION":82.5205,"RA_OF_ASC_NODE":198.5098,"ARG_OF_PERICENTER":161.3609,"MEAN_ANOMALY":198.8297,"EPHEMERIS_TYPE":0,"CLASSIFICATION_TYPE":"U","NORAD_CAT_ID":22286,"ELEMENT_SET_NO":999,"REV_AT_EPOCH":78212,"BSTAR":0.00011170388,"MEAN_MOTION_DOT":1.329e-5,"MEAN_MOTION_DDOT":0},{"OBJECT_NAME":"SL-16 R/B","OBJECT_ID":"1993-016B","EPOCH":"2026-04-19T03:16:35.016096","MEAN_MOTION":14.15312046,"ECCENTRICITY":0.0012639,"INCLINATION":71.0044,"RA_OF_ASC_NODE":130.2342,"ARG_OF_PERICENTER":263.3647,"MEAN_ANOMALY":96.6037,"EPHEMERIS_TYPE":0,"CLASSIFICATION_TYPE":"U","NORAD_CAT_ID":22566,"ELEMENT_SET_NO":999,"REV_AT_EPOCH":70789,"BSTAR":-9.4506295e-5,"MEAN_MOTION_DOT":-2.32e-6,"MEAN_MOTION_DDOT":0},{"OBJECT_NAME":"COSMOS 2242","OBJECT_ID":"1993-024A","EPOCH":"2026-04-19T06:51:22.366656","MEAN_MOTION":14.96723126,"ECCENTRICITY":0.00167591,"INCLINATION":82.5196,"RA_OF_ASC_NODE":227.8792,"ARG_OF_PERICENTER":164.1824,"MEAN_ANOMALY":195.9926,"EPHEMERIS_TYPE":0,"CLASSIFICATION_TYPE":"U","NORAD_CAT_ID":22626,"ELEMENT_SET_NO":999,"REV_AT_EPOCH":78646,"BSTAR":0.00011825045,"MEAN_MOTION_DOT":1.38e-5,"MEAN_MOTION_DDOT":0}]
