SL-8 R/B                
1 21088U 91006B   26109.15544442  .00000158  00000+0  14308-3 0  9994
2 21088  82.9410 139.9545 0020939 282.5927 138.4229 13.77502417769647
OKEAN-3                 
1 21397U 91039A   26109.17156650  .00001595  00000+0  11017-3 0  9995
2 21397  82.5132 297.6073 0014049 186.0641 174.0418 15.05024627871129
COSMOS 2151             
1 21422U 91042A   26109.23676701  .00001416  00000+0  11086-3 0  9997
2 21422  82.4981  44.5561 0010657 285.4634  74.5412 15.00275397869275
SL-14 R/B               
1 21423U 91042B   26109.20516515  .00000257  00000+0  29466-4 0  9995
2 21423  82.4955 182.2027 0018542 106.9087 253.4162 14.81866711859075
ERS-1                   
1 21574U 91050A   26109.29129115  .00000201  00000+0  78814-4 0  9996
2 21574  98.7844 128.5412 0033110  82.3595 278.1351 14.39479335821572
ARIANE 40 R/B           
1 21610U 91050F   26109.17636417  .00000166  00000+0  62005-4 0  9997
2 21610  98.1934 159.8768 0002148 332.8147  27.2931 14.42921590824839
INTERCOSMOS 25          
1 21819U 91086A   26109.18515225  .00000901  00000+0  17228-3 0  9994
2 21819  82.5991 285.5170 1485829  29.6641 338.0903 12.12120845501592
SL-8 R/B                
1 21876U 92008B   26109.29019418  .00000005  00000+0 -10374-4 0  9999
2 21876  82.9266 237.5735 0035017  23.4161 359.5456 13.75970053715004
SL-8 R/B                
1 21938U 92020B   26109.27059184 -.00000057  00000+0 -75300-4 0  9992
2 21938  82.9271 123.6231 0028963 181.6918 189.4454 13.75549093706716
USA 81                  
1 21949U 92023A   26109.24595079  .00000120  00000+0  36861-4 0  9990
2 21949  85.0036 108.0294 0001215  91.8396 268.2936 14.32380707100594
COSMOS 2219             
1 22219U 92076A   26109.26616017  .00000247  00000+0  15419-3 0  9992
2 22219  71.0585 293.2456 0017173 143.2618 216.9686 14.14090896724114
SL-16 R/B               
1 22220U 92076B   26109.28149211 -.00000093  00000+0 -22637-4 0  9995
2 22220  70.9982 102.8681 0011721  23.2860 347.7202 14.16867004727585
COSMOS 2221             
1 22236U 92080A   26109.29664314  .00001348  00000+0  11656-3 0  9994
2 22236  82.5034 240.1732 0015389  59.8276 300.4468 14.96369455786863
SL-16 R/B               
1 22285U 92093B   26109.16270654  .00000089  00000+0  69927-4 0  9994
2 22285  71.0199 279.3007 0006291 252.4971 107.5465 14.15453806718881
COSMOS 2228             
1 22286U 92094A   26109.21885900  .00001329  00000+0  11170-3 0  9992
2 22286  82.5205 198.5098 0018527 161.3609 198.8297 14.97389770782122
SL-16 R/B               
1 22566U 93016B   26109.13651639 -.00000232  00000+0 -94506-4 0  9998
2 22566  71.0044 130.2342 0012639 263.3647  96.6037 14.15312046707895
COSMOS 2242             
1 22626U 93024A   26109.28567554  .00001380  00000+0  11825-3 0  9997
2 22626  82.5196 227.8792 0016759 164.1824 195.9926 14.96723126786465
